STARLINK-31674          
1 59517U 24073G   26068.08147949 -.00002261  00000+0 -72693-4 0  9990
2 59517  43.0001 321.3705 0000609 273.7961  86.2821 15.27569136106085
TEVEL2-8                
1 63239U 25052AF  26068.66815442  .00019130  00000+0  69304-3 0  9993
2 63239  97.4055 324.2923 0008031 124.9191 235.2804 15.28392908 54807
